{"type": "FeatureCollection", "features": [ {"type": "Feature", "properties": {"norad_id": 66889, "name": "STARLINK-35852", "group": "last-30-days", "lat": -3.844950696834187, "lon": -160.7763631682749, "alt_km": 371.31096770084696, "timestamp": "2025-12-24T05:51:18.326997+00:00", "meta": {"OBJECT_NAME": "STARLINK-35852", "OBJECT_ID": "2025-283M", "EPOCH": "2025-12-23T22:00:01.999584", "MEAN_MOTION": 15.67560965, "ECCENTRICITY": 0.00013141, "INCLINATION": 53.1591, "RA_OF_ASC_NODE": 17.9423, "ARG_OF_PERICENTER": 81.5424, "MEAN_ANOMALY": 56.0288, "EPHEMERIS_TYPE": 0, "CLASSIFICATION_TYPE": "U", "NORAD_CAT_ID": 66889, "ELEMENT_SET_NO": 999, "REV_AT_EPOCH": 422, "BSTAR": -0.01945875, "MEAN_MOTION_DOT": -0.01912807, "MEAN_MOTION_DDOT": 0}, "tle": {"line1": "1 66889U 25283M   25357.91668981 -.01912807  00000+0 -19459-1 0  9995", "line2": "2 66889  53.1591  17.9423 0001314  81.5424  56.0288 15.67560965  4229"}}, "geometry": {"type": "Point", "coordinates": [-160.7763631682749, -3.844950696834187]}}, {"type": "Feature", "properties": {"norad_id": 66890, "name": "STARLINK-35885", "group": "last-30-days", "lat": -5.376057396822678, "lon": -159.62250801472345, "alt_km": 371.43977020344664, "timestamp": "2025-12-24T05:51:18.327007+00:00", "meta": {"OBJECT_NAME": "STARLINK-35885", "OBJECT_ID": "2025-283N", "EPOCH": "2025-12-23T22:00:01.999584", "MEAN_MOTION": 15.67563935, "ECCENTRICITY": 0.00012709, "INCLINATION": 53.1588, "RA_OF_ASC_NODE": 17.9385, "ARG_OF_PERICENTER": 87.7006, "MEAN_ANOMALY": 51.7862, "EPHEMERIS_TYPE": 0, "CLASSIFICATION_TYPE": "U", "NORAD_CAT_ID": 66890, "ELEMENT_SET_NO": 999, "REV_AT_EPOCH": 422, "BSTAR": -0.019492827, "MEAN_MOTION_DOT": -0.0191595, "MEAN_MOTION_DDOT": 0}, "tle": {"line1": "1 66890U 25283N   25357.91668981 -.01915950  00000+0 -19493-1 0  9997", "line2": "2 66890  53.1588  17.9385 0001270  87.7006  51.7862 15.67563935  4229"}}, "geometry": {"type": "Point", "coordinates": [-159.62250801472345, -5.376057396822678]}}, {"type": "Feature", "properties": {"norad_id": 66891, "name": "STARLINK-35855", "group": "last-30-days", "lat": -6.905227666194058, "lon": -158.46293567246596, "alt_km": 371.73793508525887, "timestamp": "2025-12-24T05:51:18.327017+00:00", "meta": {"OBJECT_NAME": "STARLINK-35855", "OBJECT_ID": "2025-283P", "EPOCH": "2025-12-23T22:00:01.999584", "MEAN_MOTION": 15.67562208, "ECCENTRICITY": 0.00013821, "INCLINATION": 53.1588, "RA_OF_ASC_NODE": 17.9344, "ARG_OF_PERICENTER": 82.6881, "MEAN_ANOMALY": 58.7173, "EPHEMERIS_TYPE": 0, "CLASSIFICATION_TYPE": "U", "NORAD_CAT_ID": 66891, "ELEMENT_SET_NO": 999, "REV_AT_EPOCH": 422, "BSTAR": -0.019491281, "MEAN_MOTION_DOT": -0.01915775, "MEAN_MOTION_DDOT": 0}, "tle": {"line1": "1 66891U 25283P   25357.91668981 -.01915775  00000+0 -19491-1 0  9991", "line2": "2 66891  53.1588  17.9344 0001382  82.6881  58.7173 15.67562208  4228"}}, "geometry": {"type": "Point", "coordinates": [-158.46293567246596, -6.905227666194058]}}, {"type": "Feature", "properties": {"norad_id": 66892, "name": "STARLINK-35883", "group": "last-30-days", "lat": -8.429454248330675, "lon": -157.29765204420093, "alt_km": 371.88162138869666, "timestamp": "2025-12-24T05:51:18.327038+00:00", "meta": {"OBJECT_NAME": "STARLINK-35883", "OBJECT_ID": "2025-283Q", "EPOCH": "2025-12-23T22:00:01.999584", "MEAN_MOTION": 15.67563549, "ECCENTRICITY": 0.00012392, "INCLINATION": 53.1588, "RA_OF_ASC_NODE": 17.9301, "ARG_OF_PERICENTER": 85.1265, "MEAN_ANOMALY": 58.1941, "EPHEMERIS_TYPE": 0, "CLASSIFICATION_TYPE": "U", "NORAD_CAT_ID": 66892, "ELEMENT_SET_NO": 999, "REV_AT_EPOCH": 416, "BSTAR": -0.019489737, "MEAN_MOTION_DOT": -0.01915631, "MEAN_MOTION_DDOT": 0}, "tle": {"line1": "1 66892U 25283Q   25357.91668981 -.01915631  00000+0 -19490-1 0  9992", "line2": "2 66892  53.1588  17.9301 0001239  85.1265  58.1941 15.67563549  4166"}}, "geometry": {"type": "Point", "coordinates": [-157.29765204420093, -8.429454248330675]}}, {"type": "Feature", "properties": {"norad_id": 66893, "name": "STARLINK-36033", "group": "last-30-days", "lat": -9.951469531855286, "lon": -156.12203967848998, "alt_km": 372.1523248561998, "timestamp": "2025-12-24T05:51:18.327049+00:00", "meta": {"OBJECT_NAME": "STARLINK-36033", "OBJECT_ID": "2025-283R", "EPOCH": "2025-12-23T22:00:01.999584", "MEAN_MOTION": 15.67559857, "ECCENTRICITY": 0.00013768, "INCLINATION": 53.1589, "RA_OF_ASC_NODE": 17.9259, "ARG_OF_PERICENTER": 81.7486, "MEAN_ANOMALY": 63.4897, "EPHEMERIS_TYPE": 0, "CLASSIFICATION_TYPE": "U", "NORAD_CAT_ID": 66893, "ELEMENT_SET_NO": 999, "REV_AT_EPOCH": 422, "BSTAR": -0.019436285, "MEAN_MOTION_DOT": -0.01910819, "MEAN_MOTION_DDOT": 0}, "tle": {"line1": "1 66893U 25283R   25357.91668981 -.01910819  00000+0 -19436-1 0  9996", "line2": "2 66893  53.1589  17.9259 0001376  81.7486  63.4897 15.67559857  4222"}}, "geometry": {"type": "Point", "coordinates": [-156.12203967848998, -9.951469531855286]}}, {"type": "Feature", "properties": {"norad_id": 66894, "name": "STARLINK-35718", "group": "last-30-days", "lat": -11.469598412771587, "lon": -154.9341759625706, "alt_km": 372.3623348159181, "timestamp": "2025-12-24T05:51:18.327059+00:00", "meta": {"OBJECT_NAME": "STARLINK-35718", "OBJECT_ID": "2025-283S", "EPOCH": "2025-12-23T22:00:01.999584", "MEAN_MOTION": 15.67559484, "ECCENTRICITY": 0.00014275, "INCLINATION": 53.159, "RA_OF_ASC_NODE": 17.9227, "ARG_OF_PERICENTER": 81.6815, "MEAN_ANOMALY": 65.4743, "EPHEMERIS_TYPE": 0, "CLASSIFICATION_TYPE": "U", "NORAD_CAT_ID": 66894, "ELEMENT_SET_NO": 999, "REV_AT_EPOCH": 422, "BSTAR": -0.019438046, "MEAN_MOTION_DOT": -0.01910984, "MEAN_MOTION_DDOT": 0}, "tle": {"line1": "1 66894U 25283S   25357.91668981 -.01910984  00000+0 -19438-1 0  9992", "line2": "2 66894  53.1590  17.9227 0001427  81.6815  65.4743 15.67559484  4220"}}, "geometry": {"type": "Point", "coordinates": [-154.9341759625706, -11.469598412771587]}}, {"type": "Feature", "properties": {"norad_id": 66895, "name": "STARLINK-35971", "group": "last-30-days", "lat": -14.488885583334868, "lon": -152.5225751338463, "alt_km": 372.6686172359241, "timestamp": "2025-12-24T05:51:18.327072+00:00", "meta": {"OBJECT_NAME": "STARLINK-35971", "OBJECT_ID": "2025-283T", "EPOCH": "2025-12-23T22:00:01.999584", "MEAN_MOTION": 15.67559628, "ECCENTRICITY": 0.0001352, "INCLINATION": 53.159, "RA_OF_ASC_NODE": 17.913, "ARG_OF_PERICENTER": 84.9537, "MEAN_ANOMALY": 66.0357, "EPHEMERIS_TYPE": 0, "CLASSIFICATION_TYPE": "U", "NORAD_CAT_ID": 66895, "ELEMENT_SET_NO": 999, "REV_AT_EPOCH": 422, "BSTAR": -0.01943267, "MEAN_MOTION_DOT": -0.01910471, "MEAN_MOTION_DDOT": 0}, "tle": {"line1": "1 66895U 25283T   25357.91668981 -.01910471  00000+0 -19433-1 0  9999", "line2": "2 66895  53.1590  17.9130 0001352  84.9537  66.0357 15.67559628  4226"}}, "geometry": {"type": "Point", "coordinates": [-152.5225751338463, -14.488885583334868]}}, {"type": "Feature", "properties": {"norad_id": 66896, "name": "STARLINK-35791", "group": "last-30-days", "lat": -12.981853758832637, "lon": -153.73653944935043, "alt_km": 372.4265180044158, "timestamp": "2025-12-24T05:51:18.327082+00:00", "meta": {"OBJECT_NAME": "STARLINK-35791", "OBJECT_ID": "2025-283U", "EPOCH": "2025-12-23T22:00:01.999584", "MEAN_MOTION": 15.67566576, "ECCENTRICITY": 0.00011992, "INCLINATION": 53.159, "RA_OF_ASC_NODE": 17.9172, "ARG_OF_PERICENTER": 86.875, "MEAN_ANOMALY": 62.1949, "EPHEMERIS_TYPE": 0, "CLASSIFICATION_TYPE": "U", "NORAD_CAT_ID": 66896, "ELEMENT_SET_NO": 999, "REV_AT_EPOCH": 422, "BSTAR": -0.019528081, "MEAN_MOTION_DOT": -0.01919149, "MEAN_MOTION_DDOT": 0}, "tle": {"line1": "1 66896U 25283U   25357.91668981 -.01919149  00000+0 -19528-1 0  9996", "line2": "2 66896  53.1590  17.9172 0001199  86.8750  62.1949 15.67566576  4224"}}, "geometry": {"type": "Point", "coordinates": [-153.73653944935043, -12.981853758832637]}}, {"type": "Feature", "properties": {"norad_id": 66897, "name": "STARLINK-36079", "group": "last-30-days", "lat": -15.988333646274487, "lon": -151.2921921887856, "alt_km": 372.83870426587146, "timestamp": "2025-12-24T05:51:18.327095+00:00", "meta": {"OBJECT_NAME": "STARLINK-36079", "OBJECT_ID": "2025-283V", "EPOCH": "2025-12-23T22:00:01.999584", "MEAN_MOTION": 15.67557126, "ECCENTRICITY": 0.00012215, "INCLINATION": 53.159, "RA_OF_ASC_NODE": 17.9096, "ARG_OF_PERICENTER": 82.4182, "MEAN_ANOMALY": 70.4904, "EPHEMERIS_TYPE": 0, "CLASSIFICATION_TYPE": "U", "NORAD_CAT_ID": 66897, "ELEMENT_SET_NO": 999, "REV_AT_EPOCH": 422, "BSTAR": -0.019412005, "MEAN_MOTION_DOT": -0.01908404, "MEAN_MOTION_DDOT": 0}, "tle": {"line1": "1 66897U 25283V   25357.91668981 -.01908404  00000+0 -19412-1 0  9991", "line2": "2 66897  53.1590  17.9096 0001221  82.4182  70.4904 15.67557126  4221"}}, "geometry": {"type": "Point", "coordinates": [-151.2921921887856, -15.988333646274487]}}, {"type": "Feature", "properties": {"norad_id": 66898, "name": "STARLINK-36065", "group": "last-30-days", "lat": -17.482282156882153, "lon": -150.0426288169635, "alt_km": 372.9697681168627, "timestamp": "2025-12-24T05:51:18.327105+00:00", "meta": {"OBJECT_NAME": "STARLINK-36065", "OBJECT_ID": "2025-283W", "EPOCH": "2025-12-23T22:00:01.999584", "MEAN_MOTION": 15.67563391, "ECCENTRICITY": 0.00012612, "INCLINATION": 53.159, "RA_OF_ASC_NODE": 17.9054, "ARG_OF_PERICENTER": 86.3567, "MEAN_ANOMALY": 68.4648, "EPHEMERIS_TYPE": 0, "CLASSIFICATION_TYPE": "U", "NORAD_CAT_ID": 66898, "ELEMENT_SET_NO": 999, "REV_AT_EPOCH": 422, "BSTAR": -0.019486282, "MEAN_MOTION_DOT": -0.01915335, "MEAN_MOTION_DDOT": 0}, "tle": {"line1": "1 66898U 25283W   25357.91668981 -.01915335  00000+0 -19486-1 0  9994", "line2": "2 66898  53.1590  17.9054 0001261  86.3567  68.4648 15.67563391  4223"}}, "geometry": {"type": "Point", "coordinates": [-150.0426288169635, -17.482282156882153]}}]}